{"type": "FeatureCollection", "features": [ {"type": "Feature", "properties": {"norad_id": 30447, "name": "FENGYUN 1C DEB", "group": "fengyun-1c-debris", "lat": -22.83908747294225, "lon": 29.54789845612401, "alt_km": 751.669958582329, "timestamp": "2025-12-17T10:52:54.629797+00:00", "meta": {"OBJECT_NAME": "FENGYUN 1C DEB", "OBJECT_ID": "1999-025AFJ", "EPOCH": "2025-12-16T14:27:04.070880", "MEAN_MOTION": 14.56676273, "ECCENTRICITY": 0.00602415, "INCLINATION": 98.9727, "RA_OF_ASC_NODE": 212.4477, "ARG_OF_PERICENTER": 19.2298, "MEAN_ANOMALY": 42.2914, "EPHEMERIS_TYPE": 0, "CLASSIFICATION_TYPE": "U", "NORAD_CAT_ID": 30447, "ELEMENT_SET_NO": 999, "REV_AT_EPOCH": 98152, "BSTAR": 0.0019213995, "MEAN_MOTION_DOT": 8.747e-05, "MEAN_MOTION_DDOT": 0}, "tle": {"line1": "1 30447U 99025AFJ 25350.60213045  .00008747  00000+0  19214-2 0  9993", "line2": "2 30447  98.9727 212.4477 0060241  19.2298  42.2914 14.56676273981527"}}, "geometry": {"type": "Point", "coordinates": [29.54789845612401, -22.83908747294225]}}, {"type": "Feature", "properties": {"norad_id": 30448, "name": "FENGYUN 1C DEB", "group": "fengyun-1c-debris", "lat": -76.9477506699837, "lon": 125.27289541036318, "alt_km": 779.157140875197, "timestamp": "2025-12-17T10:52:54.629808+00:00", "meta": {"OBJECT_NAME": "FENGYUN 1C DEB", "OBJECT_ID": "1999-025AFK", "EPOCH": "2025-12-16T19:05:07.852128", "MEAN_MOTION": 14.35175401, "ECCENTRICITY": 0.00168663, "INCLINATION": 98.8314, "RA_OF_ASC_NODE": 82.4846, "ARG_OF_PERICENTER": 359.1818, "MEAN_ANOMALY": 122.0281, "EPHEMERIS_TYPE": 0, "CLASSIFICATION_TYPE": "U", "NORAD_CAT_ID": 30448, "ELEMENT_SET_NO": 999, "REV_AT_EPOCH": 97396, "BSTAR": 0.0013914632, "MEAN_MOTION_DOT": 3.939e-05, "MEAN_MOTION_DDOT": 0}, "tle": {"line1": "1 30448U 99025AFK 25350.79522977  .00003939  00000+0  13915-2 0  9991", "line2": "2 30448  98.8314  82.4846 0016866 359.1818 122.0281 14.35175401973969"}}, "geometry": {"type": "Point", "coordinates": [125.27289541036318, -76.9477506699837]}}, {"type": "Feature", "properties": {"norad_id": 30450, "name": "FENGYUN 1C DEB", "group": "fengyun-1c-debris", "lat": 45.390349454323164, "lon": -166.33411242738768, "alt_km": 613.6600308457346, "timestamp": "2025-12-17T10:52:54.629818+00:00", "meta": {"OBJECT_NAME": "FENGYUN 1C DEB", "OBJECT_ID": "1999-025AFM", "EPOCH": "2025-12-16T00:05:18.631968", "MEAN_MOTION": 14.61807182, "ECCENTRICITY": 0.01892513, "INCLINATION": 98.0806, "RA_OF_ASC_NODE": 3.9675, "ARG_OF_PERICENTER": 197.9866, "MEAN_ANOMALY": 233.1742, "EPHEMERIS_TYPE": 0, "CLASSIFICATION_TYPE": "U", "NORAD_CAT_ID": 30450, "ELEMENT_SET_NO": 999, "REV_AT_EPOCH": 99590, "BSTAR": 0.0003965148, "MEAN_MOTION_DOT": 2.501e-05, "MEAN_MOTION_DDOT": 0}, "tle": {"line1": "1 30450U 99025AFM 25350.00368787  .00002501  00000+0  39651-3 0  9995", "line2": "2 30450  98.0806   3.9675 0189251 197.9866 233.1742 14.61807182995909"}}, "geometry": {"type": "Point", "coordinates": [-166.33411242738768, 45.390349454323164]}}, {"type": "Feature", "properties": {"norad_id": 30452, "name": "FENGYUN 1C DEB", "group": "fengyun-1c-debris", "lat": 6.759440354290886, "lon": 129.64521080056304, "alt_km": 701.597973448127, "timestamp": "2025-12-17T10:52:54.629828+00:00", "meta": {"OBJECT_NAME": "FENGYUN 1C DEB", "OBJECT_ID": "1999-025AFP", "EPOCH": "2025-12-16T22:18:23.005152", "MEAN_MOTION": 14.64724539, "ECCENTRICITY": 0.004952, "INCLINATION": 99.32, "RA_OF_ASC_NODE": 130.1677, "ARG_OF_PERICENTER": 240.0217, "MEAN_ANOMALY": 245.1415, "EPHEMERIS_TYPE": 0, "CLASSIFICATION_TYPE": "U", "NORAD_CAT_ID": 30452, "ELEMENT_SET_NO": 999, "REV_AT_EPOCH": 98168, "BSTAR": 0.0030706126, "MEAN_MOTION_DOT": 0.00016625, "MEAN_MOTION_DDOT": 0}, "tle": {"line1": "1 30452U 99025AFP 25350.92943293  .00016625  00000+0  30706-2 0  9992", "line2": "2 30452  99.3200 130.1677 0049520 240.0217 245.1415 14.64724539981689"}}, "geometry": {"type": "Point", "coordinates": [129.64521080056304, 6.759440354290886]}}, {"type": "Feature", "properties": {"norad_id": 30453, "name": "FENGYUN 1C DEB", "group": "fengyun-1c-debris", "lat": 66.24504149164885, "lon": -96.16931159158001, "alt_km": 817.0903558174969, "timestamp": "2025-12-17T10:52:54.629838+00:00", "meta": {"OBJECT_NAME": "FENGYUN 1C DEB", "OBJECT_ID": "1999-025AFQ", "EPOCH": "2025-12-16T18:05:56.014656", "MEAN_MOTION": 14.24786888, "ECCENTRICITY": 0.01158953, "INCLINATION": 98.8136, "RA_OF_ASC_NODE": 62.487, "ARG_OF_PERICENTER": 214.7266, "MEAN_ANOMALY": 273.8869, "EPHEMERIS_TYPE": 0, "CLASSIFICATION_TYPE": "U", "NORAD_CAT_ID": 30453, "ELEMENT_SET_NO": 999, "REV_AT_EPOCH": 97291, "BSTAR": 0.0011663726, "MEAN_MOTION_DOT": 2.871e-05, "MEAN_MOTION_DDOT": 0}, "tle": {"line1": "1 30453U 99025AFQ 25350.75412054  .00002871  00000+0  11664-2 0  9990", "line2": "2 30453  98.8136  62.4870 0115895 214.7266 273.8869 14.24786888972913"}}, "geometry": {"type": "Point", "coordinates": [-96.16931159158001, 66.24504149164885]}}, {"type": "Feature", "properties": {"norad_id": 30454, "name": "FENGYUN 1C DEB", "group": "fengyun-1c-debris", "lat": -43.21486637007091, "lon": -30.996858076271863, "alt_km": 933.8395922319605, "timestamp": "2025-12-17T10:52:54.629848+00:00", "meta": {"OBJECT_NAME": "FENGYUN 1C DEB", "OBJECT_ID": "1999-025AFR", "EPOCH": "2025-12-16T21:47:44.913408", "MEAN_MOTION": 14.15418177, "ECCENTRICITY": 0.01711212, "INCLINATION": 98.1335, "RA_OF_ASC_NODE": 320.7835, "ARG_OF_PERICENTER": 182.8829, "MEAN_ANOMALY": 235.2947, "EPHEMERIS_TYPE": 0, "CLASSIFICATION_TYPE": "U", "NORAD_CAT_ID": 30454, "ELEMENT_SET_NO": 999, "REV_AT_EPOCH": 96019, "BSTAR": 0.001299342, "MEAN_MOTION_DOT": 2.884e-05, "MEAN_MOTION_DDOT": 0}, "tle": {"line1": "1 30454U 99025AFR 25350.90815872  .00002884  00000+0  12993-2 0  9993", "line2": "2 30454  98.1335 320.7835 0171121 182.8829 235.2947 14.15418177960192"}}, "geometry": {"type": "Point", "coordinates": [-30.996858076271863, -43.21486637007091]}}, {"type": "Feature", "properties": {"norad_id": 30462, "name": "FENGYUN 1C DEB", "group": "fengyun-1c-debris", "lat": -77.87656231469926, "lon": 113.31173809530132, "alt_km": 787.7505766313297, "timestamp": "2025-12-17T10:52:54.629858+00:00", "meta": {"OBJECT_NAME": "FENGYUN 1C DEB", "OBJECT_ID": "1999-025AFZ", "EPOCH": "2025-12-16T21:59:27.238272", "MEAN_MOTION": 14.06268217, "ECCENTRICITY": 0.01389093, "INCLINATION": 98.8169, "RA_OF_ASC_NODE": 339.0529, "ARG_OF_PERICENTER": 238.4015, "MEAN_ANOMALY": 184.8607, "EPHEMERIS_TYPE": 0, "CLASSIFICATION_TYPE": "U", "NORAD_CAT_ID": 30462, "ELEMENT_SET_NO": 999, "REV_AT_EPOCH": 96852, "BSTAR": 0.00031201362, "MEAN_MOTION_DOT": 5.17e-06, "MEAN_MOTION_DDOT": 0}, "tle": {"line1": "1 30462U 99025AFZ 25350.91628748  .00000517  00000+0  31201-3 0  9992", "line2": "2 30462  98.8169 339.0529 0138909 238.4015 184.8607 14.06268217968523"}}, "geometry": {"type": "Point", "coordinates": [113.31173809530132, -77.87656231469926]}}, {"type": "Feature", "properties": {"norad_id": 30464, "name": "FENGYUN 1C DEB", "group": "fengyun-1c-debris", "lat": 20.946068251538932, "lon": 38.26188051735992, "alt_km": 914.5339287608858, "timestamp": "2025-12-17T10:52:54.629868+00:00", "meta": {"OBJECT_NAME": "FENGYUN 1C DEB", "OBJECT_ID": "1999-025AGB", "EPOCH": "2025-12-16T16:37:42.901824", "MEAN_MOTION": 14.10247075, "ECCENTRICITY": 0.01083875, "INCLINATION": 98.8368, "RA_OF_ASC_NODE": 40.9284, "ARG_OF_PERICENTER": 247.3015, "MEAN_ANOMALY": 234.0553, "EPHEMERIS_TYPE": 0, "CLASSIFICATION_TYPE": "U", "NORAD_CAT_ID": 30464, "ELEMENT_SET_NO": 999, "REV_AT_EPOCH": 97119, "BSTAR": 7.5853667e-05, "MEAN_MOTION_DOT": 9.7e-07, "MEAN_MOTION_DDOT": 0}, "tle": {"line1": "1 30464U 99025AGB 25350.69285766  .00000097  00000+0  75854-4 0  9994", "line2": "2 30464  98.8368  40.9284 0108387 247.3015 234.0553 14.10247075971197"}}, "geometry": {"type": "Point", "coordinates": [38.26188051735992, 20.946068251538932]}}, {"type": "Feature", "properties": {"norad_id": 30465, "name": "FENGYUN 1C DEB", "group": "fengyun-1c-debris", "lat": -80.6536978622547, "lon": -171.04227966747985, "alt_km": 789.9612615997003, "timestamp": "2025-12-17T10:52:54.629878+00:00", "meta": {"OBJECT_NAME": "FENGYUN 1C DEB", "OBJECT_ID": "1999-025AGC", "EPOCH": "2025-12-16T05:25:19.594272", "MEAN_MOTION": 14.33913171, "ECCENTRICITY": 0.00165039, "INCLINATION": 98.8296, "RA_OF_ASC_NODE": 78.5117, "ARG_OF_PERICENTER": 20.3453, "MEAN_ANOMALY": 33.9456, "EPHEMERIS_TYPE": 0, "CLASSIFICATION_TYPE": "U", "NORAD_CAT_ID": 30465, "ELEMENT_SET_NO": 999, "REV_AT_EPOCH": 97408, "BSTAR": 0.0012677498, "MEAN_MOTION_DOT": 3.494e-05, "MEAN_MOTION_DDOT": 0}, "tle": {"line1": "1 30465U 99025AGC 25350.22592123  .00003494  00000+0  12677-2 0  9998", "line2": "2 30465  98.8296  78.5117 0016503  20.3453  33.9456 14.33913171974084"}}, "geometry": {"type": "Point", "coordinates": [-171.04227966747985, -80.6536978622547]}}, {"type": "Feature", "properties": {"norad_id": 30466, "name": "FENGYUN 1C DEB", "group": "fengyun-1c-debris", "lat": 16.101736879151986, "lon": 28.875686163771206, "alt_km": 734.0341640938914, "timestamp": "2025-12-17T10:52:54.629888+00:00", "meta": {"OBJECT_NAME": "FENGYUN 1C DEB", "OBJECT_ID": "1999-025AGD", "EPOCH": "2025-12-16T03:02:09.814272", "MEAN_MOTION": 14.22550673, "ECCENTRICITY": 0.01163239, "INCLINATION": 98.6555, "RA_OF_ASC_NODE": 30.0924, "ARG_OF_PERICENTER": 14.5126, "MEAN_ANOMALY": 50.2545, "EPHEMERIS_TYPE": 0, "CLASSIFICATION_TYPE": "U", "NORAD_CAT_ID": 30466, "ELEMENT_SET_NO": 999, "REV_AT_EPOCH": 97399, "BSTAR": 0.00089445252, "MEAN_MOTION_DOT": 2.097e-05, "MEAN_MOTION_DDOT": 0}, "tle": {"line1": "1 30466U 99025AGD 25350.12650248  .00002097  00000+0  89445-3 0  9997", "line2": "2 30466  98.6555  30.0924 0116323  14.5126  50.2545 14.22550673973995"}}, "geometry": {"type": "Point", "coordinates": [28.875686163771206, 16.101736879151986]}}]}